{"fetched_at":"2026-03-28T16:33:49Z","count":6709,"tles":[{"name":"EOS-08","line1":"1 60454U 24147A   26085.33928850  .00031541  00000+0  64538-3 0  9998","line2":"2 60454  37.3780 221.2727 0003046 325.4356  34.6210 15.45245923 90244","category":"Other"}]}